{
    "links": {
        "self": "http://www.neowsapp.com/rest/v1/neo/3719868?api_key=iIulBulltgU6a56xZRHN4H3l9WmuAYTsLGpBGhQ2"
    },
    "id": "3719868",
    "neo_reference_id": "3719868",
    "name": "(2015 KT57)",
    "designation": "2015 KT57",
    "nasa_jpl_url": "http://ssd.jpl.nasa.gov/sbdb.cgi?sstr=3719868",
    "absolute_magnitude_h": 24.3,
    "estimated_diameter": {
        "kilometers": {
            "estimated_diameter_min": 0.0366906138,
            "estimated_diameter_max": 0.0820427065
        },
        "meters": {
            "estimated_diameter_min": 36.6906137531,
            "estimated_diameter_max": 82.0427064882
        },
        "miles": {
            "estimated_diameter_min": 0.0227984834,
            "estimated_diameter_max": 0.0509789586
        },
        "feet": {
            "estimated_diameter_min": 120.3760332259,
            "estimated_diameter_max": 269.1689931548
        }
    },
    "is_potentially_hazardous_asteroid": false,
    "close_approach_data": [
        {
            "close_approach_date": "2015-06-04",
            "close_approach_date_full": "2015-Jun-04 16:37",
            "epoch_date_close_approach": 1433435820000,
            "relative_velocity": {
                "kilometers_per_second": "14.9431301649",
                "kilometers_per_hour": "53795.2685935097",
                "miles_per_hour": "33426.2878657838"
            },
            "miss_distance": {
                "astronomical": "0.3187245715",
                "lunar": "123.9838583135",
                "kilometers": "47680517.013062705",
                "miles": "29627299.435787129"
            },
            "orbiting_body": "Earth"
        }
    ],
    "orbital_data": {
        "orbit_id": "3",
        "orbit_determination_date": "2017-04-06 08:33:32",
        "first_observation_date": "2015-05-21",
        "last_observation_date": "2015-05-24",
        "data_arc_in_days": 3,
        "observations_used": 12,
        "orbit_uncertainty": "9",
        "minimum_orbit_intersection": ".284117",
        "jupiter_tisserand_invariant": "4.027",
        "epoch_osculation": "2457165.5",
        "eccentricity": ".3288966609402569",
        "semi_major_axis": "1.683629996404991",
        "inclination": "29.32042693811195",
        "ascending_node_longitude": "241.6903658424903",
        "orbital_period": "797.9366424805621",
        "perihelion_distance": "1.129889712328533",
        "perihelion_argument": "69.33139497690537",
        "aphelion_distance": "2.237370280481449",
        "perihelion_time": "2457251.136915458903",
        "mean_anomaly": "321.3637375150921",
        "mean_motion": ".4511636398610052",
        "equinox": "J2000",
        "orbit_class": {
            "orbit_class_type": "AMO",
            "orbit_class_description": "Near-Earth asteroid orbits similar to that of 1221 Amor",
            "orbit_class_range": "1.017 AU < q (perihelion) < 1.3 AU"
        }
    },
    "is_sentry_object": false
}